{"type": "FeatureCollection", "features": [ {"type": "Feature", "properties": {"norad_id": 66725, "name": "FLOCK 4H-22", "group": "last-30-days", "lat": -37.19485679218191, "lon": 71.62765622980118, "alt_km": 519.0101898830744, "timestamp": "2025-12-20T07:33:49.513621+00:00", "meta": {"OBJECT_NAME": "FLOCK 4H-22", "OBJECT_ID": "2025-276BM", "EPOCH": "2025-12-19T22:00:01.999584", "MEAN_MOTION": 15.1746841, "ECCENTRICITY": 0.0001436, "INCLINATION": 97.4389, "RA_OF_ASC_NODE": 65.5457, "ARG_OF_PERICENTER": 317.8464, "MEAN_ANOMALY": 349.3123, "EPHEMERIS_TYPE": 0, "CLASSIFICATION_TYPE": "U", "NORAD_CAT_ID": 66725, "ELEMENT_SET_NO": 999, "REV_AT_EPOCH": 147, "BSTAR": -0.0011159729, "MEAN_MOTION_DOT": -0.00022327, "MEAN_MOTION_DDOT": 0}, "tle": {"line1": "1 66725U 25276BM  25353.91668981 -.00022327  00000+0 -11160-2 0  9992", "line2": "2 66725  97.4389  65.5457 0001436 317.8464 349.3123 15.17468410  1471"}}, "geometry": {"type": "Point", "coordinates": [71.62765622980118, -37.19485679218191]}}, {"type": "Feature", "properties": {"norad_id": 66726, "name": "FLOCK 4H-23", "group": "last-30-days", "lat": -53.94209323294578, "lon": 76.29858533446442, "alt_km": 520.0247695452308, "timestamp": "2025-12-20T07:33:49.513630+00:00", "meta": {"OBJECT_NAME": "FLOCK 4H-23", "OBJECT_ID": "2025-276BN", "EPOCH": "2025-12-19T22:00:01.999584", "MEAN_MOTION": 15.17207458, "ECCENTRICITY": 0.00031329, "INCLINATION": 97.4457, "RA_OF_ASC_NODE": 65.5594, "ARG_OF_PERICENTER": 256.284, "MEAN_ANOMALY": 34.1447, "EPHEMERIS_TYPE": 0, "CLASSIFICATION_TYPE": "U", "NORAD_CAT_ID": 66726, "ELEMENT_SET_NO": 999, "REV_AT_EPOCH": 263, "BSTAR": -0.001236561, "MEAN_MOTION_DOT": -0.00024545, "MEAN_MOTION_DDOT": 0}, "tle": {"line1": "1 66726U 25276BN  25353.91668981 -.00024545  00000+0 -12366-2 0  9996", "line2": "2 66726  97.4457  65.5594 0003132 256.2840  34.1447 15.17207458  2639"}}, "geometry": {"type": "Point", "coordinates": [76.29858533446442, -53.94209323294578]}}, {"type": "Feature", "properties": {"norad_id": 66727, "name": "FLOCK 4H-24", "group": "last-30-days", "lat": -45.95965600711021, "lon": 73.72932894937256, "alt_km": 519.4583453452979, "timestamp": "2025-12-20T07:33:49.513641+00:00", "meta": {"OBJECT_NAME": "FLOCK 4H-24", "OBJECT_ID": "2025-276BP", "EPOCH": "2025-12-19T22:00:01.999584", "MEAN_MOTION": 15.17311576, "ECCENTRICITY": 0.00025271, "INCLINATION": 97.4457, "RA_OF_ASC_NODE": 65.5655, "ARG_OF_PERICENTER": 277.6606, "MEAN_ANOMALY": 20.7933, "EPHEMERIS_TYPE": 0, "CLASSIFICATION_TYPE": "U", "NORAD_CAT_ID": 66727, "ELEMENT_SET_NO": 999, "REV_AT_EPOCH": 263, "BSTAR": -0.0011536462, "MEAN_MOTION_DOT": -0.00022975, "MEAN_MOTION_DDOT": 0}, "tle": {"line1": "1 66727U 25276BP  25353.91668981 -.00022975  00000+0 -11536-2 0  9990", "line2": "2 66727  97.4457  65.5655 0002527 277.6606  20.7933 15.17311576  2630"}}, "geometry": {"type": "Point", "coordinates": [73.72932894937256, -45.95965600711021]}}, {"type": "Feature", "properties": {"norad_id": 66728, "name": "FLOCK 4H-25", "group": "last-30-days", "lat": 22.128966047432144, "lon": 62.92467747093725, "alt_km": 511.2539369734377, "timestamp": "2025-12-20T07:33:49.513651+00:00", "meta": {"OBJECT_NAME": "FLOCK 4H-25", "OBJECT_ID": "2025-276BQ", "EPOCH": "2025-12-19T22:00:01.999584", "MEAN_MOTION": 15.1819193, "ECCENTRICITY": 0.00017034, "INCLINATION": 97.4409, "RA_OF_ASC_NODE": 65.5793, "ARG_OF_PERICENTER": 117.3281, "MEAN_ANOMALY": 248.7155, "EPHEMERIS_TYPE": 0, "CLASSIFICATION_TYPE": "U", "NORAD_CAT_ID": 66728, "ELEMENT_SET_NO": 999, "REV_AT_EPOCH": 130, "BSTAR": -0.0012807745, "MEAN_MOTION_DOT": -0.00026137, "MEAN_MOTION_DDOT": 0}, "tle": {"line1": "1 66728U 25276BQ  25353.91668981 -.00026137  00000+0 -12808-2 0  9998", "line2": "2 66728  97.4409  65.5793 0001703 117.3281 248.7155 15.18191930  1307"}}, "geometry": {"type": "Point", "coordinates": [62.92467747093725, 22.128966047432144]}}, {"type": "Feature", "properties": {"norad_id": 66729, "name": "FLOCK 4H-26", "group": "last-30-days", "lat": -61.19655133920491, "lon": 79.68494898073781, "alt_km": 519.6458963492687, "timestamp": "2025-12-20T07:33:49.513660+00:00", "meta": {"OBJECT_NAME": "FLOCK 4H-26", "OBJECT_ID": "2025-276BR", "EPOCH": "2025-12-19T22:00:01.999584", "MEAN_MOTION": 15.17135269, "ECCENTRICITY": 0.00033601, "INCLINATION": 97.4409, "RA_OF_ASC_NODE": 65.543, "ARG_OF_PERICENTER": 275.183, "MEAN_ANOMALY": 7.8689, "EPHEMERIS_TYPE": 0, "CLASSIFICATION_TYPE": "U", "NORAD_CAT_ID": 66729, "ELEMENT_SET_NO": 999, "REV_AT_EPOCH": 130, "BSTAR": -0.0012468919, "MEAN_MOTION_DOT": -0.00024698, "MEAN_MOTION_DDOT": 0}, "tle": {"line1": "1 66729U 25276BR  25353.91668981 -.00024698  00000+0 -12469-2 0  9992", "line2": "2 66729  97.4409  65.5430 0003360 275.1830   7.8689 15.17135269  1308"}}, "geometry": {"type": "Point", "coordinates": [79.68494898073781, -61.19655133920491]}}, {"type": "Feature", "properties": {"norad_id": 66730, "name": "FLOCK 4H-27", "group": "last-30-days", "lat": 11.78691373025311, "lon": 64.39790085863272, "alt_km": 513.5060517448583, "timestamp": "2025-12-20T07:33:49.513670+00:00", "meta": {"OBJECT_NAME": "FLOCK 4H-27", "OBJECT_ID": "2025-276BS", "EPOCH": "2025-12-19T22:00:01.999584", "MEAN_MOTION": 15.18058896, "ECCENTRICITY": 0.00012145, "INCLINATION": 97.4385, "RA_OF_ASC_NODE": 65.5685, "ARG_OF_PERICENTER": 125.6488, "MEAN_ANOMALY": 230.1477, "EPHEMERIS_TYPE": 0, "CLASSIFICATION_TYPE": "U", "NORAD_CAT_ID": 66730, "ELEMENT_SET_NO": 999, "REV_AT_EPOCH": 130, "BSTAR": -0.0011996069, "MEAN_MOTION_DOT": -0.00024396, "MEAN_MOTION_DDOT": 0}, "tle": {"line1": "1 66730U 25276BS  25353.91668981 -.00024396  00000+0 -11996-2 0  9993", "line2": "2 66730  97.4385  65.5685 0001214 125.6488 230.1477 15.18058896  1306"}}, "geometry": {"type": "Point", "coordinates": [64.39790085863272, 11.78691373025311]}}, {"type": "Feature", "properties": {"norad_id": 66731, "name": "FLOCK 4H-28", "group": "last-30-days", "lat": -59.436200548152854, "lon": 78.71588105142544, "alt_km": 519.8810916740695, "timestamp": "2025-12-20T07:33:49.513682+00:00", "meta": {"OBJECT_NAME": "FLOCK 4H-28", "OBJECT_ID": "2025-276BT", "EPOCH": "2025-12-19T22:00:01.999584", "MEAN_MOTION": 15.17121186, "ECCENTRICITY": 0.00029654, "INCLINATION": 97.4397, "RA_OF_ASC_NODE": 65.5408, "ARG_OF_PERICENTER": 278.7011, "MEAN_ANOMALY": 6.2011, "EPHEMERIS_TYPE": 0, "CLASSIFICATION_TYPE": "U", "NORAD_CAT_ID": 66731, "ELEMENT_SET_NO": 999, "REV_AT_EPOCH": 263, "BSTAR": -0.0011951091, "MEAN_MOTION_DOT": -0.00023668, "MEAN_MOTION_DDOT": 0}, "tle": {"line1": "1 66731U 25276BT  25353.91668981 -.00023668  00000+0 -11951-2 0  9996", "line2": "2 66731  97.4397  65.5408 0002965 278.7011   6.2011 15.17121186  2634"}}, "geometry": {"type": "Point", "coordinates": [78.71588105142544, -59.436200548152854]}}, {"type": "Feature", "properties": {"norad_id": 66732, "name": "FLOCK 4H-29", "group": "last-30-days", "lat": -48.78581197331247, "lon": 74.51094331264306, "alt_km": 519.8068300919804, "timestamp": "2025-12-20T07:33:49.513692+00:00", "meta": {"OBJECT_NAME": "FLOCK 4H-29", "OBJECT_ID": "2025-276BU", "EPOCH": "2025-12-19T22:00:01.999584", "MEAN_MOTION": 15.17259483, "ECCENTRICITY": 0.00019065, "INCLINATION": 97.4388, "RA_OF_ASC_NODE": 65.5407, "ARG_OF_PERICENTER": 301.1126, "MEAN_ANOMALY": 354.5468, "EPHEMERIS_TYPE": 0, "CLASSIFICATION_TYPE": "U", "NORAD_CAT_ID": 66732, "ELEMENT_SET_NO": 999, "REV_AT_EPOCH": 263, "BSTAR": -0.0011874317, "MEAN_MOTION_DOT": -0.00023608, "MEAN_MOTION_DDOT": 0}, "tle": {"line1": "1 66732U 25276BU  25353.91668981 -.00023608  00000+0 -11874-2 0  9995", "line2": "2 66732  97.4388  65.5407 0001906 301.1126 354.5468 15.17259483  2633"}}, "geometry": {"type": "Point", "coordinates": [74.51094331264306, -48.78581197331247]}}, {"type": "Feature", "properties": {"norad_id": 66733, "name": "FLOCK 4H-30", "group": "last-30-days", "lat": -54.55356692708366, "lon": 76.53531973961381, "alt_km": 519.4904149866052, "timestamp": "2025-12-20T07:33:49.513702+00:00", "meta": {"OBJECT_NAME": "FLOCK 4H-30", "OBJECT_ID": "2025-276BV", "EPOCH": "2025-12-19T22:00:01.999584", "MEAN_MOTION": 15.17226767, "ECCENTRICITY": 0.00030381, "INCLINATION": 97.4451, "RA_OF_ASC_NODE": 65.5588, "ARG_OF_PERICENTER": 278.8731, "MEAN_ANOMALY": 10.9111, "EPHEMERIS_TYPE": 0, "CLASSIFICATION_TYPE": "U", "NORAD_CAT_ID": 66733, "ELEMENT_SET_NO": 999, "REV_AT_EPOCH": 263, "BSTAR": -0.0011977693, "MEAN_MOTION_DOT": -0.00023792, "MEAN_MOTION_DDOT": 0}, "tle": {"line1": "1 66733U 25276BV  25353.91668981 -.00023792  00000+0 -11978-2 0  9995", "line2": "2 66733  97.4451  65.5588 0003038 278.8731  10.9111 15.17226767  2632"}}, "geometry": {"type": "Point", "coordinates": [76.53531973961381, -54.55356692708366]}}, {"type": "Feature", "properties": {"norad_id": 66734, "name": "FLOCK 4H-31", "group": "last-30-days", "lat": -53.57132540973335, "lon": 76.12706669405685, "alt_km": 519.9199253978941, "timestamp": "2025-12-20T07:33:49.513712+00:00", "meta": {"OBJECT_NAME": "FLOCK 4H-31", "OBJECT_ID": "2025-276BW", "EPOCH": "2025-12-19T22:00:01.999584", "MEAN_MOTION": 15.17190449, "ECCENTRICITY": 0.00022947, "INCLINATION": 97.4386, "RA_OF_ASC_NODE": 65.5392, "ARG_OF_PERICENTER": 290.9276, "MEAN_ANOMALY": 359.9276, "EPHEMERIS_TYPE": 0, "CLASSIFICATION_TYPE": "U", "NORAD_CAT_ID": 66734, "ELEMENT_SET_NO": 999, "REV_AT_EPOCH": 263, "BSTAR": -0.0011979735, "MEAN_MOTION_DOT": -0.0002377, "MEAN_MOTION_DDOT": 0}, "tle": {"line1": "1 66734U 25276BW  25353.91668981 -.00023770  00000+0 -11980-2 0  9995", "line2": "2 66734  97.4386  65.5392 0002294 290.9276 359.9276 15.17190449  2630"}}, "geometry": {"type": "Point", "coordinates": [76.12706669405685, -53.57132540973335]}}]}